ONEWEB-0555             
1 56057U 23043M   24195.93140286  .00000083  00000+0  18395-3 0  9998
2 56057  87.9105   8.7796 0002039 111.5626 248.5722 13.16593298 66423
ONEWEB-0557             
1 56058U 23043N   24195.94565058  .00000080  00000+0  17507-3 0  9999
2 56058  87.9105   8.8023 0002537 112.6160 247.5239 13.16593734 66423
ONEWEB-0558             
1 56059U 23043P   24195.92019621  .00000047  00000+0  83008-4 0  9991
2 56059  87.9276  23.9804 0001688  74.1687 285.9633 13.21821552 65331
ONEWEB-0559             
1 56060U 23043Q   24195.90916396 -.00000005  00000+0 -43022-4 0  9994
2 56060  87.9277  23.9800 0002184  74.7228 285.4147 13.21826496 65347
ONEWEB-0566             
1 56061U 23043R   24195.90284010  .00000024  00000+0  27530-4 0  9991
2 56061  87.9277  23.9816 0001692  65.5962 294.5349 13.21828332 65325
ONEWEB-0568             
1 56062U 23043S   24195.88707113 -.00000011  00000+0 -61425-4 0  9992
2 56062  87.9106   8.7784 0001785 102.6839 257.4491 13.16593852 66430
ONEWEB-0574             
1 56063U 23043T   24195.89653895 -.00000112  00000+0 -30322-3 0  9994
2 56063  87.9275  23.9769 0001663  89.0071 271.1253 13.21823576 65366
ONEWEB-0575             
1 56064U 23043U   24195.88073353 -.00000024  00000+0 -95097-4 0  9992
2 56064  87.9107   8.7890 0002330 100.5684 259.5710 13.16593294 66429
ONEWEB-0576             
1 56065U 23043V   24195.93773573  .00000113  00000+0  26193-3 0  9997
2 56065  87.9105   8.7745 0001934 104.0451 256.0895 13.16593600 66424
ONEWEB-0577             
1 56066U 23043W   24195.94406407  .00000104  00000+0  23907-3 0  9998
2 56066  87.9105   8.7725 0002552 100.5714 259.5705 13.16593554 66452
ONEWEB-0578             
1 56067U 23043X   24195.88391780  .00000041  00000+0  67224-4 0  9990
2 56067  87.9279  23.9786 0001802  93.2836 266.8504 13.21824476 65320
ONEWEB-0579             
1 56068U 23043Y   24195.79877305 -.00000018  00000+0 -75159-4 0  9995
2 56068  87.9275  23.9921 0002053  78.3897 281.7467 13.21824796 65327
ONEWEB-0581             
1 56069U 23043Z   24195.87439791 -.00000017  00000+0 -78341-4 0  9993
2 56069  87.9104   8.8163 0002405  91.3304 268.8103 13.16593158 66411
ONEWEB-0609             
1 56070U 23043AA  24195.80558126  .00000052  00000+0  10416-3 0  9997
2 56070  87.9022  39.1886 0001743  83.3863 276.7465 13.15547149 63959
ONEWEB-0613             
1 56071U 23043AB  24195.80082670  .00000119  00000+0  28215-3 0  9994
2 56071  87.9026  39.1865 0001886  75.3860 284.7479 13.15547516 63959
ONEWEB-0630             
1 56072U 23043AC  24195.94819464  .00000128  00000+0  30503-3 0  9992
2 56072  87.9022  39.1472 0001770  72.6124 287.5199 13.15547854 63961
ONEWEB-0632             
1 56073U 23043AD  24195.94344418  .00000152  00000+0  37003-3 0  9994
2 56073  87.9022  39.1670 0002170  84.7133 275.4245 13.15548844 63969
ONEWEB-0633             
1 56074U 23043AE  24195.93709140  .00000166  00000+0  40619-3 0  9993
2 56074  87.9018  39.1489 0001632  67.8749 292.2554 13.15547470 63942
ONEWEB-0634             
1 56075U 23043AF  24195.92283866  .00000043  00000+0  79940-4 0  9999
2 56075  87.9024  39.1643 0001421  87.5787 272.5506 13.15548854 63933
ONEWEB-0635             
1 56076U 23043AG  24195.84202643 -.00000016  00000+0 -76852-4 0  9996
2 56076  87.9020  39.2345 0002218  86.0388 274.0995 13.15546661 63951
ONEWEB-0636             
1 56077U 23043AH  24195.83410958 -.00000049  00000+0 -16437-3 0  9994
2 56077  87.9021  39.2058 0002176  86.0496 274.0884 13.15548608 63935
ONEWEB-0637             
1 56078U 23043AJ  24195.82776537 -.00000090  00000+0 -27306-3 0  9995
2 56078  87.9023  39.1838 0002155  88.1286 272.0091 13.15547749 63955
ONEWEB-0647             
1 56079U 23043AK  24195.82300648 -.00000062  00000+0 -19793-3 0  9992
2 56079  87.9022  39.2029 0002089  80.8450 279.2917 13.15550717 63940
ONEWEB-0651             
1 56080U 23043AL  24195.81825488 -.00000066  00000+0 -20961-3 0  9990
2 56080  87.9025  39.1814 0002178  92.0531 268.0849 13.15548219 65148
ONEWEB-0718             
1 56081U 23043AM  24195.81351240 -.00000026  00000+0 -10198-3 0  9998
2 56081  87.9025  39.1686 0001278  94.6463 265.4814 13.15548769 63958
ONEWEB-0561             
1 56710U 23068A   24195.64445743  .00000086  00000+0  17887-3 0  9993
2 56710  87.9205  54.4457 0002524  82.3442 277.7978 13.20771326 56636
ONEWEB-0668             
1 56711U 23068B   24195.87676458 -.00000143  00000+0 -40757-3 0  9996
2 56711  87.9096   8.7953 0001441 110.8633 249.2652 13.16594067 59236
ONEWEB-0676             
1 56712U 23068C   24195.93298451  .00000134  00000+0  31693-3 0  9994
2 56712  87.9105   8.7917 0002399  90.0681 270.0725 13.16595698 59169
ONEWEB-0677             
1 56713U 23068D   24195.86072716  .00000785  00000+0  18987-2 0  9993
2 56713  87.9177  54.3956 0002150  91.4738 268.6642 13.20789516 56967
ONEWEB-0678             
1 56714U 23068E   24195.93392825  .00000131  00000+0  31331-3 0  9992
2 56714  87.9026  39.1097 0001918  76.1097 284.0246 13.15547497 56828
ONEWEB-0679             
1 56715U 23068F   24195.90210582 -.00000014  00000+0 -70206-4 0  9996
2 56715  87.9101   8.8004 0002136 110.9963 249.1397 13.16592603 59187
ONEWEB-0680             
1 56716U 23068G   24195.80191102 -.00000320  00000+0 -80606-3 0  9996
2 56716  87.9279  24.0396 0001401 115.8838 244.2441 13.21826546 58173
ONEWEB-0681             
1 56717U 23068H   24195.88787483 -.00000001  00000+0 -35020-4 0  9995
2 56717  87.9278  24.0021 0003014  89.7029 270.4451 13.21827876 58170
ONEWEB-0682             
1 56718U 23068J   24195.80795047 -.00000231  00000+0 -64849-3 0  9998
2 56718  87.9023  39.1758 0001661 105.0788 255.0526 13.15548150 56979
ONEWEB-0683             
1 56719U 23068K   24195.60117576 -.00000101  00000+0 -30229-3 0  9993
2 56719  87.9021  39.1891 0001679  95.6773 264.4549 13.15547139 56912
ONEWEB-0684             
1 56720U 23068L   24195.83727122 -.00000056  00000+0 -18323-3 0  9994
2 56720  87.9022  39.2189 0001926  36.7201 323.4061 13.15546819 56776
ONEWEB-0686             
1 56721U 23068M   24195.89181497 -.00000029  00000+0 -11010-3 0  9996
2 56721  87.9101   8.8389 0001649  88.5345 271.5974 13.16592961 59178
ONEWEB-0694             
1 56722U 23068N   24195.92745728  .00000092  00000+0  20803-3 0  9992
2 56722  87.9099   8.7507 0001694 107.2351 252.8966 13.16595330 59235
ONEWEB-0696             
1 56723U 23068P   24195.94661165  .00000169  00000+0  41531-3 0  9993
2 56723  87.9024  39.1714 0001981  79.8850 280.2504 13.15548013 56908
ONEWEB-0703             
1 56724U 23068Q   24195.80399838  .00000072  00000+0  15732-3 0  9991
2 56724  87.9023  39.2204 0002811  66.3938 293.7487 13.15547513 56772
ONEWEB-0721             
1 56725U 23068R   24195.86368662  .00009628  00000+0  11147-2 0  9990
2 56725  86.6790 324.9251 0011156 164.5720 195.5847 14.85362559 62474
